0 COSMOS 2251 DEB
1 33919U 93036DY  13281.89906545  .00004166  00000-0  12061-2 0  9716
2 33919 074.0562 116.4540 0036828 235.9184 189.0076 14.44399564244753
0 COSMOS 2251 DEB
1 33919U 93036DY  13283.99551859  .00004884  00000-0  14118-2 0  9726
2 33919 074.0565 112.5582 0036775 231.5093 290.2739 14.44413450245057
0 COSMOS 2251 DEB
1 33919U 93036DY  13285.99665086  .00004159  00000-0  12034-2 0  9737
2 33919 074.0561 108.8384 0036706 227.4358 255.8479 14.44428956245340
0 COSMOS 2251 DEB
1 33919U 93036DY  13288.34087819  .00007005  00000-0  20196-2 0  9743
2 33919 074.0556 104.4805 0036654 222.5656 205.7081 14.44450014245683
0 COSMOS 2251 DEB
1 33919U 93036DY  13289.94338525  .00006295  00000-0  18153-2 0  9754
2 33919 074.0556 101.5012 0036611 219.3378 258.6815 14.44465150245914
0 COSMOS 2251 DEB
1 33919U 93036DY  13290.68249860  .00004198  00000-0  12053-2 0  9764
2 33919 074.0558 100.1279 0036595 217.6132 142.2951 14.44472786246021
0 COSMOS 2251 DEB
1 33919U 93036DY  13291.95266307  .00005215  00000-0  15048-2 0  9768
2 33919 074.0561 097.7658 0036556 215.2808 266.9812 14.44487354246205
0 COSMOS 2251 DEB
1 33919U 93036DY  13294.16737277  .00007113  00000-0  20481-2 0  9770
2 33919 074.0568 093.6486 0036470 210.8107 263.7102 14.44508693246526
